[{"OBJECT_NAME":"STARLINK-3278","OBJECT_ID":"2022-001AD","EPOCH":"2025-10-15T18:47:53.873088","MEAN_MOTION":15.08848871,"ECCENTRICITY":0.0001409,"INCLINATION":53.2148,"RA_OF_ASC_NODE":109.629,"ARG_OF_PERICENTER":75.7569,"MEAN_ANOMALY":284.3579,"EPHEMERIS_TYPE":0,"CLASSIFICATION_TYPE":"U","NORAD_CAT_ID":50830,"ELEMENT_SET_NO":999,"REV_AT_EPOCH":20839,"BSTAR":2.2521e-5,"MEAN_MOTION_DOT":7.1e-7,"MEAN_MOTION_DDOT":0},{"OBJECT_NAME":"STARLINK-3299","OBJECT_ID":"2022-001AE","EPOCH":"2025-10-15T20:40:30.467136","MEAN_MOTION":15.0884655,"ECCENTRICITY":0.0001408,"INCLINATION":53.216,"RA_OF_ASC_NODE":99.346,"ARG_OF_PERICENTER":96.7694,"MEAN_ANOMALY":263.3459,"EPHEMERIS_TYPE":0,"CLASSIFICATION_TYPE":"U","NORAD_CAT_ID":50831,"ELEMENT_SET_NO":999,"REV_AT_EPOCH":20854,"BSTAR":-1.2524e-5,"MEAN_MOTION_DOT":-4.87e-6,"MEAN_MOTION_DDOT":0},{"OBJECT_NAME":"STARLINK-3328","OBJECT_ID":"2022-001AF","EPOCH":"2025-10-15T18:49:16.181184","MEAN_MOTION":15.08836724,"ECCENTRICITY":0.0001377,"INCLINATION":53.2156,"RA_OF_ASC_NODE":109.6728,"ARG_OF_PERICENTER":89.6061,"MEAN_ANOMALY":270.5088,"EPHEMERIS_TYPE":0,"CLASSIFICATION_TYPE":"U","NORAD_CAT_ID":50832,"ELEMENT_SET_NO":999,"REV_AT_EPOCH":20839,"BSTAR":3.3122e-5,"MEAN_MOTION_DOT":2.39e-6,"MEAN_MOTION_DDOT":0},{"OBJECT_NAME":"STARLINK-3331","OBJECT_ID":"2022-001AH","EPOCH":"2025-10-15T20:02:04.168608","MEAN_MOTION":15.08840356,"ECCENTRICITY":0.0001303,"INCLINATION":53.2157,"RA_OF_ASC_NODE":109.4034,"ARG_OF_PERICENTER":90.4438,"MEAN_ANOMALY":269.6704,"EPHEMERIS_TYPE":0,"CLASSIFICATION_TYPE":"U","NORAD_CAT_ID":50834,"ELEMENT_SET_NO":999,"REV_AT_EPOCH":20839,"BSTAR":3.9578e-5,"MEAN_MOTION_DOT":3.42e-6,"MEAN_MOTION_DDOT":0},{"OBJECT_NAME":"STARLINK-3310","OBJECT_ID":"2022-001AJ","EPOCH":"2025-10-15T20:07:23.081376","MEAN_MOTION":15.08844818,"ECCENTRICITY":0.0001167,"INCLINATION":53.2157,"RA_OF_ASC_NODE":109.4979,"ARG_OF_PERICENTER":85.6056,"MEAN_ANOMALY":274.507,"EPHEMERIS_TYPE":0,"CLASSIFICATION_TYPE":"U","NORAD_CAT_ID":50835,"ELEMENT_SET_NO":999,"REV_AT_EPOCH":20839,"BSTAR":7.8844e-5,"MEAN_MOTION_DOT":9.67e-6,"MEAN_MOTION_DDOT":0},{"OBJECT_NAME":"STARLINK-3330","OBJECT_ID":"2022-001AK","EPOCH":"2025-10-15T19:36:52.604928","MEAN_MOTION":15.08866047,"ECCENTRICITY":0.0001355,"INCLINATION":53.2157,"RA_OF_ASC_NODE":109.2558,"ARG_OF_PERICENTER":92.3361,"MEAN_ANOMALY":267.7786,"EPHEMERIS_TYPE":0,"CLASSIFICATION_TYPE":"U","NORAD_CAT_ID":50836,"ELEMENT_SET_NO":999,"REV_AT_EPOCH":20829,"BSTAR":0.00029225,"MEAN_MOTION_DOT":4.37e-5,"MEAN_MOTION_DDOT":0},{"OBJECT_NAME":"STARLINK-3318","OBJECT_ID":"2022-001AL","EPOCH":"2025-10-15T20:45:47.596608","MEAN_MOTION":15.08839806,"ECCENTRICITY":0.0001069,"INCLINATION":53.2147,"RA_OF_ASC_NODE":99.2639,"ARG_OF_PERICENTER":93.9924,"MEAN_ANOMALY":266.119,"EPHEMERIS_TYPE":0,"CLASSIFICATION_TYPE":"U","NORAD_CAT_ID":50837,"ELEMENT_SET_NO":999,"REV_AT_EPOCH":20854,"BSTAR":0.00037347,"MEAN_MOTION_DOT":5.661e-5,"MEAN_MOTION_DDOT":0},{"OBJECT_NAME":"STARLINK-3322","OBJECT_ID":"2022-001AM","EPOCH":"2025-10-15T20:00:03.000384","MEAN_MOTION":15.78721884,"ECCENTRICITY":0.0001169,"INCLINATION":53.1841,"RA_OF_ASC_NODE":15.8683,"ARG_OF_PERICENTER":276.2149,"MEAN_ANOMALY":123.0601,"EPHEMERIS_TYPE":0,"CLASSIFICATION_TYPE":"U","NORAD_CAT_ID":50838,"ELEMENT_SET_NO":999,"REV_AT_EPOCH":600,"BSTAR":0.0010334,"MEAN_MOTION_DOT":0.00188327,"MEAN_MOTION_DDOT":0},{"OBJECT_NAME":"STARLINK-3320","OBJECT_ID":"2022-001AN","EPOCH":"2025-10-15T19:35:34.152000","MEAN_MOTION":15.08847165,"ECCENTRICITY":0.0001582,"INCLINATION":53.2156,"RA_OF_ASC_NODE":109.4812,"ARG_OF_PERICENTER":84.8396,"MEAN_ANOMALY":275.2776,"EPHEMERIS_TYPE":0,"CLASSIFICATION_TYPE":"U","NORAD_CAT_ID":50839,"ELEMENT_SET_NO":999,"REV_AT_EPOCH":20838,"BSTAR":5.4293e-6,"MEAN_MOTION_DOT":-2.02e-6,"MEAN_MOTION_DDOT":0},{"OBJECT_NAME":"STARLINK-3295","OBJECT_ID":"2022-001AP","EPOCH":"2025-10-15T19:30:16.697664","MEAN_MOTION":15.08843025,"ECCENTRICITY":0.0001406,"INCLINATION":53.2159,"RA_OF_ASC_NODE":109.4977,"ARG_OF_PERICENTER":93.2195,"MEAN_ANOMALY":266.8958,"EPHEMERIS_TYPE":0,"CLASSIFICATION_TYPE":"U","NORAD_CAT_ID":50840,"ELEMENT_SET_NO":999,"REV_AT_EPOCH":20838,"BSTAR":-4.3376e-6,"MEAN_MOTION_DOT":-3.57e-6,"MEAN_MOTION_DDOT":0},{"OBJECT_NAME":"STARLINK-3300","OBJECT_ID":"2022-001AQ","EPOCH":"2025-10-15T19:46:10.185600","MEAN_MOTION":15.08839979,"ECCENTRICITY":0.0001279,"INCLINATION":53.2154,"RA_OF_ASC_NODE":109.4486,"ARG_OF_PERICENTER":88.532,"MEAN_ANOMALY":271.5819,"EPHEMERIS_TYPE":0,"CLASSIFICATION_TYPE":"U","NORAD_CAT_ID":50841,"ELEMENT_SET_NO":999,"REV_AT_EPOCH":20839,"BSTAR":0.00010059,"MEAN_MOTION_DOT":1.313e-5,"MEAN_MOTION_DDOT":0},{"OBJECT_NAME":"STARLINK-3302","OBJECT_ID":"2022-001AR","EPOCH":"2025-10-15T21:00:22.114080","MEAN_MOTION":15.08832981,"ECCENTRICITY":0.000128,"INCLINATION":53.2157,"RA_OF_ASC_NODE":109.2172,"ARG_OF_PERICENTER":89.8818,"MEAN_ANOMALY":270.2321,"EPHEMERIS_TYPE":0,"CLASSIFICATION_TYPE":"U","NORAD_CAT_ID":50842,"ELEMENT_SET_NO":999,"REV_AT_EPOCH":20839,"BSTAR":6.1539e-6,"MEAN_MOTION_DOT":-1.9e-6,"MEAN_MOTION_DDOT":0},{"OBJECT_NAME":"STARLINK-3325","OBJECT_ID":"2022-001AS","EPOCH":"2025-10-15T19:56:46.739328","MEAN_MOTION":15.08858181,"ECCENTRICITY":0.0001666,"INCLINATION":53.2148,"RA_OF_ASC_NODE":109.4161,"ARG_OF_PERICENTER":95.3572,"MEAN_ANOMALY":264.761,"EPHEMERIS_TYPE":0,"CLASSIFICATION_TYPE":"U","NORAD_CAT_ID":50843,"ELEMENT_SET_NO":999,"REV_AT_EPOCH":20839,"BSTAR":0.00028521,"MEAN_MOTION_DOT":4.256e-5,"MEAN_MOTION_DDOT":0},{"OBJECT_NAME":"STARLINK-3326","OBJECT_ID":"2022-001AT","EPOCH":"2025-10-15T20:44:27.559104","MEAN_MOTION":15.08842491,"ECCENTRICITY":0.0001291,"INCLINATION":53.216,"RA_OF_ASC_NODE":109.2652,"ARG_OF_PERICENTER":89.5753,"MEAN_ANOMALY":270.5387,"EPHEMERIS_TYPE":0,"CLASSIFICATION_TYPE":"U","NORAD_CAT_ID":50844,"ELEMENT_SET_NO":999,"REV_AT_EPOCH":20840,"BSTAR":6.6242e-5,"MEAN_MOTION_DOT":7.67e-6,"MEAN_MOTION_DDOT":0},{"OBJECT_NAME":"STARLINK-3230","OBJECT_ID":"2022-001AU","EPOCH":"2025-10-15T20:12:41.273568","MEAN_MOTION":15.08849393,"ECCENTRICITY":0.0001463,"INCLINATION":53.2145,"RA_OF_ASC_NODE":109.3644,"ARG_OF_PERICENTER":80.8311,"MEAN_ANOMALY":279.2846,"EPHEMERIS_TYPE":0,"CLASSIFICATION_TYPE":"U","NORAD_CAT_ID":50845,"ELEMENT_SET_NO":999,"REV_AT_EPOCH":20840,"BSTAR":0.00042969,"MEAN_MOTION_DOT":6.559e-5,"MEAN_MOTION_DDOT":0},{"OBJECT_NAME":"STARLINK-3308","OBJECT_ID":"2022-001AV","EPOCH":"2025-10-15T20:55:04.617408","MEAN_MOTION":15.08839644,"ECCENTRICITY":0.0001257,"INCLINATION":53.2158,"RA_OF_ASC_NODE":109.3501,"ARG_OF_PERICENTER":91.5586,"MEAN_ANOMALY":268.555,"EPHEMERIS_TYPE":0,"CLASSIFICATION_TYPE":"U","NORAD_CAT_ID":50846,"ELEMENT_SET_NO":999,"REV_AT_EPOCH":20840,"BSTAR":8.0362e-5,"MEAN_MOTION_DOT":9.91e-6,"MEAN_MOTION_DDOT":0},{"OBJECT_NAME":"STARLINK-3315","OBJECT_ID":"2022-001AX","EPOCH":"2025-10-15T20:33:52.462080","MEAN_MOTION":15.08849136,"ECCENTRICITY":0.0001398,"INCLINATION":53.2159,"RA_OF_ASC_NODE":109.2976,"ARG_OF_PERICENTER":93.7376,"MEAN_ANOMALY":266.3776,"EPHEMERIS_TYPE":0,"CLASSIFICATION_TYPE":"U","NORAD_CAT_ID":50848,"ELEMENT_SET_NO":999,"REV_AT_EPOCH":20840,"BSTAR":1.2092e-5,"MEAN_MOTION_DOT":-9.5e-7,"MEAN_MOTION_DDOT":0},{"OBJECT_NAME":"STARLINK-3311","OBJECT_ID":"2022-001AY","EPOCH":"2025-10-15T20:49:46.065792","MEAN_MOTION":15.08833202,"ECCENTRICITY":0.0001259,"INCLINATION":53.2161,"RA_OF_ASC_NODE":109.2515,"ARG_OF_PERICENTER":90.5722,"MEAN_ANOMALY":269.5414,"EPHEMERIS_TYPE":0,"CLASSIFICATION_TYPE":"U","NORAD_CAT_ID":50849,"ELEMENT_SET_NO":999,"REV_AT_EPOCH":20840,"BSTAR":1.4187e-5,"MEAN_MOTION_DOT":-6.2e-7,"MEAN_MOTION_DDOT":0},{"OBJECT_NAME":"STARLINK-3312","OBJECT_ID":"2022-001AZ","EPOCH":"2025-10-15T16:08:54.271968","MEAN_MOTION":15.08835742,"ECCENTRICITY":0.0001345,"INCLINATION":53.2166,"RA_OF_ASC_NODE":70.1247,"ARG_OF_PERICENTER":90.9829,"MEAN_ANOMALY":269.1318,"EPHEMERIS_TYPE":0,"CLASSIFICATION_TYPE":"U","NORAD_CAT_ID":50850,"ELEMENT_SET_NO":999,"REV_AT_EPOCH":20947,"BSTAR":7.6375e-5,"MEAN_MOTION_DOT":9.28e-6,"MEAN_MOTION_DDOT":0},{"OBJECT_NAME":"STARLINK-3314","OBJECT_ID":"2022-001BA","EPOCH":"2025-10-15T20:17:56.967936","MEAN_MOTION":15.08848993,"ECCENTRICITY":0.0001431,"INCLINATION":53.2147,"RA_OF_ASC_NODE":109.2708,"ARG_OF_PERICENTER":88.4063,"MEAN_ANOMALY":271.7093,"EPHEMERIS_TYPE":0,"CLASSIFICATION_TYPE":"U","NORAD_CAT_ID":50851,"ELEMENT_SET_NO":999,"REV_AT_EPOCH":20840,"BSTAR":0.00022332,"MEAN_MOTION_DOT":3.269e-5,"MEAN_MOTION_DDOT":0},{"OBJECT_NAME":"STARLINK-3366","OBJECT_ID":"2022-005A","EPOCH":"2025-10-15T12:59:27.397248","MEAN_MOTION":15.0884538,"ECCENTRICITY":0.0001494,"INCLINATION":53.2175,"RA_OF_ASC_NODE":220.7182,"ARG_OF_PERICENTER":84.37,"MEAN_ANOMALY":275.7463,"EPHEMERIS_TYPE":0,"CLASSIFICATION_TYPE":"U","NORAD_CAT_ID":51104,"ELEMENT_SET_NO":999,"REV_AT_EPOCH":20696,"BSTAR":8.9757e-5,"MEAN_MOTION_DOT":1.141e-5,"MEAN_MOTION_DDOT":0},{"OBJECT_NAME":"STARLINK-3350","OBJECT_ID":"2022-005B","EPOCH":"2025-10-15T06:00:51.197184","MEAN_MOTION":15.08820113,"ECCENTRICITY":0.00014692,"INCLINATION":53.2165,"RA_OF_ASC_NODE":222.0245,"ARG_OF_PERICENTER":93.5709,"MEAN_ANOMALY":266.5451,"EPHEMERIS_TYPE":0,"CLASSIFICATION_TYPE":"U","NORAD_CAT_ID":51105,"ELEMENT_SET_NO":999,"REV_AT_EPOCH":20692,"BSTAR":-7.7657023e-5,"MEAN_MOTION_DOT":-1.523e-5,"MEAN_MOTION_DDOT":0},{"OBJECT_NAME":"STARLINK-3176","OBJECT_ID":"2022-005C","EPOCH":"2025-10-15T19:47:30.039936","MEAN_MOTION":15.0884411,"ECCENTRICITY":0.0001327,"INCLINATION":53.2182,"RA_OF_ASC_NODE":219.4434,"ARG_OF_PERICENTER":99.135,"MEAN_ANOMALY":260.9792,"EPHEMERIS_TYPE":0,"CLASSIFICATION_TYPE":"U","NORAD_CAT_ID":51106,"ELEMENT_SET_NO":999,"REV_AT_EPOCH":20700,"BSTAR":5.0455e-5,"MEAN_MOTION_DOT":5.15e-6,"MEAN_MOTION_DDOT":0}]
